NORAD_CAT_ID,OBJECT_NAME,OBJECT_TYPE,EPOCH,MEAN_MOTION,ECCENTRICITY,INCLINATION,RA_OF_ASC_NODE,ARG_OF_PERICENTER,MEAN_ANOMALY,BSTAR,MEAN_MOTION_DOT,MEAN_MOTION_DDOT,TLE_LINE0,TLE_LINE1,TLE_LINE2,SEMIMAJOR_AXIS,PERIOD,APOGEE,PERIGEE,DECAYED
55938.0,STARLINK-5909,PAYLOAD,2024-06-10 23:01:27,14.98319753,0.0002843,70.0002,89.9027,267.2499,92.8334,0.00017565,2.003e-05,0.0,0 STARLINK-5909,1 55938U 23037AA  24162.95934028  .00002003  00000-0  17565-3 0  9992,2 55938  70.0002  89.9027 0002843 267.2499  92.8334 14.98319753 68601,6950.225,96.108,574.066,570.114,0.0
55938.0,STARLINK-5909,PAYLOAD,2024-06-11 05:25:58,14.98333774,0.0002878,70.0003,89.2295,265.5465,94.5365,4.9963e-05,5.03e-06,0.0,0 STARLINK-5909,1 55938U 23037AA  24163.22637401  .00000503  00000-0  49963-4 0  9999,2 55938  70.0003  89.2295 0002878 265.5465  94.5365 14.98333774 68987,6950.181,96.107,574.046,570.046,0.0
55938.0,STARLINK-5909,PAYLOAD,2024-06-11 11:50:31,14.98331341,0.0002867,70.0004,88.556,266.3479,93.7352,4.339e-05,4.25e-06,0.0,0 STARLINK-5909,1 55938U 23037AA  24163.49341530  .00000425  00000-0  43390-4 0  9994,2 55938  70.0004  88.5560 0002867 266.3479  93.7352 14.98331341 68689,6950.189,96.107,574.046,570.061,0.0
55938.0,STARLINK-5909,PAYLOAD,2024-06-12 05:27:59,14.98335083,0.0002774,70.0004,86.7047,266.5164,93.5678,0.00010867,1.204e-05,0.0,0 STARLINK-5909,1 55938U 23037AA  24164.22777003  .00001204  00000-0  10867-3 0  9992,2 55938  70.0004  86.7047 0002774 266.5164  93.5678 14.98335083 69136,6950.177,96.107,573.97,570.114,0.0
55938.0,STARLINK-5909,PAYLOAD,2024-06-12 11:52:32,14.98330948,0.0002804,70.0,86.0298,274.6885,85.3954,-1.068e-05,-2.2e-06,0.0,0 STARLINK-5909,1 55938U 23037AA  24164.49481608 -.00000220  00000-0 -10680-4 0  9997,2 55938  70.0000  86.0298 0002804 274.6885  85.3954 14.98330948 69172,6950.19,96.107,574.004,570.106,0.0
55938.0,STARLINK-5909,PAYLOAD,2024-06-12 21:29:20,14.98323206,0.0002654,70.0004,85.0203,272.0212,88.0643,-2.289e-05,-3.66e-06,0.0,0 STARLINK-5909,1 55938U 23037AA  24164.89538122 -.00000366  00000-0 -22890-4 0  9992,2 55938  70.0004  85.0203 0002654 272.0212  88.0643 14.98323206 68892,6950.214,96.107,573.923,570.234,0.0
55938.0,STARLINK-5909,PAYLOAD,2024-06-13 03:53:53,14.98323025,0.0002677,70.0007,84.3484,267.5425,92.5428,-3.0911e-05,-4.62e-06,0.0,0 STARLINK-5909,1 55938U 23037AA  24165.16242233 -.00000462  00000-0 -30911-4 0  9998,2 55938  70.0007  84.3484 0002677 267.5425  92.5428 14.98323025 69271,6950.214,96.107,573.94,570.219,0.0
55938.0,STARLINK-5909,PAYLOAD,2024-06-13 11:54:33,14.98340366,0.0002733,70.0006,83.5059,270.6244,89.4602,-0.00019868,-2.463e-05,0.0,0 STARLINK-5909,1 55938U 23037AA  24165.49621545 -.00002463  00000-0 -19868-3 0  9991,2 55938  70.0006  83.5059 0002733 270.6244  89.4602 14.98340366 69328,6950.161,96.106,573.925,570.126,0.0
55938.0,STARLINK-5909,PAYLOAD,2024-06-13 21:31:21,14.98333907,0.0002767,70.0003,82.4968,270.8377,89.2465,2.3543e-05,1.88e-06,0.0,0 STARLINK-5909,1 55938U 23037AA  24165.89677346  .00000188  00000-0  23543-4 0  9991,2 55938  70.0003  82.4968 0002767 270.8377  89.2465 14.98333907 69045,6950.181,96.107,573.969,570.123,0.0
55938.0,STARLINK-5909,PAYLOAD,2024-06-14 11:56:33,14.98331035,0.0002852,69.9999,80.9807,269.7701,90.3131,-6.7102e-05,-8.94e-06,0.0,0 STARLINK-5909,1 55938U 23037AA  24166.49761567 -.00000894  00000-0 -67102-4 0  9992,2 55938  69.9999  80.9807 0002852 269.7701  90.3131 14.98331035 69137,6950.19,96.107,574.037,570.072,0.0
55938.0,STARLINK-5909,PAYLOAD,2024-06-14 21:33:22,14.98322222,0.0002899,69.9998,79.9705,271.6818,88.4009,5.629e-05,5.79e-06,0.0,0 STARLINK-5909,1 55938U 23037AA  24166.89817887  .00000579  00000-0  56290-4 0  9997,2 55938  69.9998  79.9705 0002899 271.6818  88.4009 14.98322222 69199,6950.217,96.107,574.097,570.067,0.0
55938.0,STARLINK-5909,PAYLOAD,2024-06-15 11:58:34,14.98330352,0.0002938,69.9999,78.4548,270.0745,90.0077,2.3341e-05,1.86e-06,0.0,0 STARLINK-5909,1 55938U 23037AA  24167.49901548  .00000186  00000-0  23341-4 0  9997,2 55938  69.9999  78.4548 0002938 270.0745  90.0077 14.98330352 69282,6950.192,96.107,574.099,570.015,0.0
55938.0,STARLINK-5909,PAYLOAD,2024-06-15 19:59:15,14.98333044,0.0002962,69.9998,77.613,270.0872,89.9948,2.9983e-05,2.65e-06,0.0,0 STARLINK-5909,1 55938U 23037AA  24167.83281288  .00000265  00000-0  29983-4 0  9993,2 55938  69.9998  77.6130 0002962 270.0872  89.9948 14.98333044 69338,6950.183,96.107,574.107,569.99,0.0
55938.0,STARLINK-5909,PAYLOAD,2024-06-16 03:59:54,14.98340539,0.0003004,69.9999,76.772,271.0017,89.0798,3.6728e-05,3.45e-06,0.0,0 STARLINK-5909,1 55938U 23037AA  24168.16660680  .00000345  00000-0  36728-4 0  9991,2 55938  69.9999  76.7720 0003004 271.0017  89.0798 14.98340539 69380,6950.16,96.106,574.113,569.937,0.0
55938.0,STARLINK-5909,PAYLOAD,2024-06-16 21:37:24,14.98323061,0.0003061,70.0001,74.9206,270.5238,89.557,1.9931e-05,1.45e-06,0.0,0 STARLINK-5909,1 55938U 23037AA  24168.90097738  .00000145  00000-0  19931-4 0  9996,2 55938  70.0001  74.9206 0003061 270.5238  89.5570 14.98323061 69832,6950.214,96.107,574.207,569.952,0.0
55938.0,STARLINK-5909,PAYLOAD,2024-06-17 21:39:25,14.98326867,0.0002974,70.0006,72.3964,271.4581,88.6237,-8.4089e-06,-1.93e-06,0.0,0 STARLINK-5909,1 55938U 23037AA  24169.90237648 -.00000193  00000-0 -84089-5 0  9995,2 55938  70.0006  72.3964 0002974 271.4581  88.6237 14.98326867 69649,6950.203,96.107,574.135,570.001,0.0
55938.0,STARLINK-5909,PAYLOAD,2024-06-18 02:27:49,14.98329132,0.0002787,70.0006,71.8916,270.1507,89.9333,-2.8008e-05,-4.27e-06,0.0,0 STARLINK-5909,1 55938U 23037AA  24170.10265589 -.00000427  00000-0 -28008-4 0  9992,2 55938  70.0006  71.8916 0002787 270.1507  89.9333 14.98329132 70018,6950.196,96.107,573.998,570.124,0.0
55938.0,STARLINK-5909,PAYLOAD,2024-06-18 10:28:29,14.98339629,0.0002811,70.0008,71.0499,268.8402,91.2435,-0.0001643,-2.053e-05,0.0,0 STARLINK-5909,1 55938U 23037AA  24170.43645191 -.00002053  00000-0 -16430-3 0  9991,2 55938  70.0008  71.0499 0002811 268.8402  91.2435 14.98339629 69721,6950.163,96.106,573.982,570.074,0.0
55938.0,STARLINK-5909,PAYLOAD,2024-06-18 23:17:33,14.98332905,0.0002878,70.0002,69.7032,266.382,93.701,6.0648e-05,6.31e-06,0.0,0 STARLINK-5909,1 55938U 23037AA  24170.97052975  .00000631  00000-0  60648-4 0  9991,2 55938  70.0002  69.7032 0002878 266.3820  93.7010 14.98332905 69807,6950.184,96.107,574.049,570.049,0.0
55938.0,STARLINK-5909,PAYLOAD,2024-06-19 02:29:49,14.98334502,0.0002859,70.0002,69.3664,267.1837,92.8995,7.6843e-05,8.24e-06,0.0,0 STARLINK-5909,1 55938U 23037AA  24171.10404805  .00000824  00000-0  76843-4 0  9998,2 55938  70.0002  69.3664 0002859 267.1837  92.8995 14.98334502 70168,6950.179,96.107,574.031,570.057,0.0
55938.0,STARLINK-5909,PAYLOAD,2024-06-19 10:30:30,14.98329527,0.0002969,69.9997,68.5247,268.9309,91.151,5.4821e-05,5.61e-06,0.0,0 STARLINK-5909,1 55938U 23037AA  24171.43785115  .00000561  00000-0  54821-4 0  9990,2 55938  69.9997  68.5247 0002969 268.9309  91.1510 14.98329527 69873,6950.194,96.107,574.123,569.996,0.0
55938.0,STARLINK-5909,PAYLOAD,2024-06-19 21:43:27,14.98326147,0.0002808,70.0,67.3464,267.0565,93.0273,2.2677e-06,-6.6e-07,0.0,0 STARLINK-5909,1 55938U 23037AA  24171.90517544 -.00000066  00000-0  22677-5 0  9997,2 55938  70.0000  67.3464 0002808 267.0565  93.0273 14.98326147 70284,6950.205,96.107,574.021,570.118,0.0
55938.0,STARLINK-5909,PAYLOAD,2024-06-20 10:32:31,14.98327445,0.0002827,70.0004,66.0003,270.1808,89.9027,-2.4074e-05,-3.8e-06,0.0,0 STARLINK-5909,1 55938U 23037AA  24172.43925627 -.00000380  00000-0 -24074-4 0  9993,2 55938  70.0004  66.0003 0002827 270.1808  89.9027 14.98327445 70024,6950.201,96.107,574.031,570.101,0.0
55938.0,STARLINK-5909,PAYLOAD,2024-06-20 21:45:28,14.9833027,0.0002928,70.0,64.8216,269.8863,90.1961,-3.1781e-05,-4.72e-06,0.0,0 STARLINK-5909,1 55938U 23037AA  24172.90657411 -.00000472  00000-0 -31781-4 0  9993,2 55938  70.0000  64.8216 0002928 269.8863  90.1961 14.98330270 70098,6950.192,96.107,574.092,570.022,0.0
55938.0,STARLINK-5909,PAYLOAD,2024-06-20 23:21:36,14.98330906,0.000288,70.0,64.653,269.143,90.9399,-3.1964e-05,-4.74e-06,0.0,0 STARLINK-5909,1 55938U 23037AA  24172.97333371 -.00000474  00000-0 -31964-4 0  9991,2 55938  70.0000  64.6530 0002880 269.1430  90.9399 14.98330906 70443,6950.19,96.107,574.057,570.053,0.0
55938.0,STARLINK-5909,PAYLOAD,2024-06-21 02:33:51,14.98333034,0.0002912,69.9999,64.3152,266.2819,93.8008,-3.9262e-06,-1.4e-06,0.0,0 STARLINK-5909,1 55938U 23037AA  24173.10685111 -.00000140  00000-0 -39262-5 0  9999,2 55938  69.9999  64.3152 0002912 266.2819  93.8008 14.98333034 70128,6950.184,96.107,574.072,570.025,0.0
55938.0,STARLINK-5909,PAYLOAD,2024-06-21 20:11:20,14.98326409,0.0002959,69.9999,62.4639,268.9218,91.1602,5.8529e-05,6.05e-06,0.0,0 STARLINK-5909,1 55938U 23037AA  24173.84121304  .00000605  00000-0  58529-4 0  9999,2 55938  69.9999  62.4639 0002959 268.9218  91.1602 14.98326409 70231,6950.204,96.107,574.126,570.012,0.0
55938.0,STARLINK-5909,PAYLOAD,2024-06-22 02:35:52,14.98330887,0.0002994,69.9999,61.7907,268.914,91.1677,4.1385e-05,4.01e-06,0.0,0 STARLINK-5909,1 55938U 23037AA  24174.10825078  .00000401  00000-0  41385-4 0  9994,2 55938  69.9999  61.7907 0002994 268.9140  91.1677 14.98330887 70613,6950.19,96.107,574.136,569.974,0.0
55938.0,STARLINK-5909,PAYLOAD,2024-06-22 20:13:21,14.98331234,0.000298,69.9999,59.939,268.8178,91.264,1.5911e-05,9.7e-07,0.0,0 STARLINK-5909,1 55938U 23037AA  24174.84261076  .00000097  00000-0  15911-4 0  9994,2 55938  69.9999  59.9390 0002980 268.8178  91.2640 14.98331234 70385,6950.189,96.107,574.125,569.983,0.0
55938.0,STARLINK-5909,PAYLOAD,2024-06-23 02:37:53,14.98333203,0.0002975,70.0001,59.267,268.3501,91.7317,1.6274e-05,1.01e-06,0.0,0 STARLINK-5909,1 55938U 23037AA  24175.10964915  .00000101  00000-0  16274-4 0  9995,2 55938  70.0001  59.2670 0002975 268.3501  91.7317 14.98333203 70761,6950.183,96.107,574.116,569.98,0.0
